STARLINK-32122          
1 60285U 24132H   26068.38678793  .00000160  00000+0  17539-4 0  9991
2 60285  53.1611  53.8644 0001171  84.9791 275.1343 15.30187053 91512
STARLINK-36554          
1 67502U 26012K   26067.71268370  .00032833  00000+0  11969-2 0  9992
2 67502  42.9934 319.8184 0000695 339.2059  20.8765 15.27591469  7619
